{
  "type": "FeatureCollection",
  "features": [
    {
      "type": "Feature",
      "properties": {
        "norad_id": 30380,
        "name": "FENGYUN 1C DEB",
        "group": "fengyun-1c-debris",
        "lat": -23.261580238931263,
        "lon": -134.72957168672417,
        "alt_km": 616.6607869109184,
        "timestamp": "2025-12-26T16:33:55.847629+00:00",
        "meta_object_name": "FENGYUN 1C DEB",
        "meta_object_id": "1999-025ACT",
        "meta_epoch": "2025-12-26T02:23:34.239840",
        "meta_mean_motion": 14.50703403,
        "meta_eccentricity": 0.01780989,
        "meta_inclination": 98.9127,
        "meta_ra_of_asc_node": 48.5131,
        "meta_arg_of_pericenter": 177.1536,
        "meta_mean_anomaly": 183.0715,
        "meta_ephemeris_type": 0,
        "meta_classification_type": "U",
        "meta_norad_cat_id": 30380,
        "meta_element_set_no": 999,
        "meta_rev_at_epoch": 99759,
        "meta_bstar": 0.00027594151,
        "meta_mean_motion_dot": 1.271e-05,
        "meta_mean_motion_ddot": 0,
        "tle_line1": "1 30380U 99025ACT 25360.09970185  .00001271  00000+0  27594-3 0  9994",
        "tle_line2": "2 30380  98.9127  48.5131 0178098 177.1536 183.0715 14.50703403997598"
      },
      "geometry": {
        "type": "Point",
        "coordinates": [
          -134.72957168672417,
          -23.261580238931263
        ]
      }
    },
    {
      "type": "Feature",
      "properties": {
        "norad_id": 30381,
        "name": "FENGYUN 1C DEB",
        "group": "fengyun-1c-debris",
        "lat": 74.30146003212127,
        "lon": 1.962573557803551,
        "alt_km": 812.3071124442386,
        "timestamp": "2025-12-26T16:33:55.847638+00:00",
        "meta_object_name": "FENGYUN 1C DEB",
        "meta_object_id": "1999-025ACU",
        "meta_epoch": "2025-12-24T13:13:19.655616",
        "meta_mean_motion": 14.12982436,
        "meta_eccentricity": 0.00538965,
        "meta_inclination": 98.8127,
        "meta_ra_of_asc_node": 33.3585,
        "meta_arg_of_pericenter": 42.5981,
        "meta_mean_anomaly": 317.9353,
        "meta_ephemeris_type": 0,
        "meta_classification_type": "U",
        "meta_norad_cat_id": 30381,
        "meta_element_set_no": 999,
        "meta_rev_at_epoch": 92333,
        "meta_bstar": 0.00093102658,
        "meta_mean_motion_dot": 1.716e-05,
        "meta_mean_motion_ddot": 0,
        "tle_line1": "1 30381U 99025ACU 25358.55092194  .00001716  00000+0  93103-3 0  9991",
        "tle_line2": "2 30381  98.8127  33.3585 0053896  42.5981 317.9353 14.12982436923330"
      },
      "geometry": {
        "type": "Point",
        "coordinates": [
          1.962573557803551,
          74.30146003212127
        ]
      }
    },
    {
      "type": "Feature",
      "properties": {
        "norad_id": 30382,
        "name": "FENGYUN 1C DEB",
        "group": "fengyun-1c-debris",
        "lat": -38.66813075502585,
        "lon": 45.508718781935976,
        "alt_km": 703.219123651118,
        "timestamp": "2025-12-26T16:33:55.847647+00:00",
        "meta_object_name": "FENGYUN 1C DEB",
        "meta_object_id": "1999-025ACV",
        "meta_epoch": "2025-12-26T01:42:58.917600",
        "meta_mean_motion": 14.2534632,
        "meta_eccentricity": 0.0154318,
        "meta_inclination": 98.4982,
        "meta_ra_of_asc_node": 38.0373,
        "meta_arg_of_pericenter": 317.8281,
        "meta_mean_anomaly": 69.9712,
        "meta_ephemeris_type": 0,
        "meta_classification_type": "U",
        "meta_norad_cat_id": 30382,
        "meta_element_set_no": 999,
        "meta_rev_at_epoch": 97725,
        "meta_bstar": 0.00086897081,
        "meta_mean_motion_dot": 2.274e-05,
        "meta_mean_motion_ddot": 0,
        "tle_line1": "1 30382U 99025ACV 25360.07151525  .00002274  00000+0  86897-3 0  9998",
        "tle_line2": "2 30382  98.4982  38.0373 0154318 317.8281  69.9712 14.25346320977258"
      },
      "geometry": {
        "type": "Point",
        "coordinates": [
          45.508718781935976,
          -38.66813075502585
        ]
      }
    },
    {
      "type": "Feature",
      "properties": {
        "norad_id": 30385,
        "name": "FENGYUN 1C DEB",
        "group": "fengyun-1c-debris",
        "lat": -51.2375374635317,
        "lon": -169.2858715240919,
        "alt_km": 683.6982571603849,
        "timestamp": "2025-12-26T16:33:55.847656+00:00",
        "meta_object_name": "FENGYUN 1C DEB",
        "meta_object_id": "1999-025ACY",
        "meta_epoch": "2025-12-25T13:29:33.775872",
        "meta_mean_motion": 14.38811893,
        "meta_eccentricity": 0.0124714,
        "meta_inclination": 99.081,
        "meta_ra_of_asc_node": 21.0103,
        "meta_arg_of_pericenter": 251.595,
        "meta_mean_anomaly": 261.2852,
        "meta_ephemeris_type": 0,
        "meta_classification_type": "U",
        "meta_norad_cat_id": 30385,
        "meta_element_set_no": 999,
        "meta_rev_at_epoch": 98953,
        "meta_bstar": 0.00028035,
        "meta_mean_motion_dot": 8.89e-06,
        "meta_mean_motion_ddot": 0,
        "tle_line1": "1 30385U 99025ACY 25359.56219648  .00000889  00000+0  28035-3 0  9994",
        "tle_line2": "2 30385  99.0810  21.0103 0124714 251.5950 261.2852 14.38811893989537"
      },
      "geometry": {
        "type": "Point",
        "coordinates": [
          -169.2858715240919,
          -51.2375374635317
        ]
      }
    },
    {
      "type": "Feature",
      "properties": {
        "norad_id": 30386,
        "name": "FENGYUN 1C DEB",
        "group": "fengyun-1c-debris",
        "lat": 75.44467790282941,
        "lon": 110.43306878957394,
        "alt_km": 828.4721804691981,
        "timestamp": "2025-12-26T16:33:55.847665+00:00",
        "meta_object_name": "FENGYUN 1C DEB",
        "meta_object_id": "1999-025ACZ",
        "meta_epoch": "2025-12-24T16:24:06.770016",
        "meta_mean_motion": 13.55610958,
        "meta_eccentricity": 0.03043556,
        "meta_inclination": 98.6909,
        "meta_ra_of_asc_node": 252.5703,
        "meta_arg_of_pericenter": 124.6608,
        "meta_mean_anomaly": 269.5784,
        "meta_ephemeris_type": 0,
        "meta_classification_type": "U",
        "meta_norad_cat_id": 30386,
        "meta_element_set_no": 999,
        "meta_rev_at_epoch": 92991,
        "meta_bstar": 0.0019056002,
        "meta_mean_motion_dot": 1.75e-05,
        "meta_mean_motion_ddot": 0,
        "tle_line1": "1 30386U 99025ACZ 25358.68341169  .00001750  00000+0  19056-2 0  9991",
        "tle_line2": "2 30386  98.6909 252.5703 0304355 124.6608 269.5784 13.55610958929918"
      },
      "geometry": {
        "type": "Point",
        "coordinates": [
          110.43306878957394,
          75.44467790282941
        ]
      }
    },
    {
      "type": "Feature",
      "properties": {
        "norad_id": 30387,
        "name": "FENGYUN 1C DEB",
        "group": "fengyun-1c-debris",
        "lat": -53.269156343360564,
        "lon": 27.12288053412991,
        "alt_km": 849.6887283666774,
        "timestamp": "2025-12-26T16:33:55.847674+00:00",
        "meta_object_name": "FENGYUN 1C DEB",
        "meta_object_id": "1999-025ADA",
        "meta_epoch": "2025-12-25T12:41:17.863008",
        "meta_mean_motion": 14.15065168,
        "meta_eccentricity": 0.0001151,
        "meta_inclination": 98.656,
        "meta_ra_of_asc_node": 14.2169,
        "meta_arg_of_pericenter": 90.6992,
        "meta_mean_anomaly": 61.3287,
        "meta_ephemeris_type": 0,
        "meta_classification_type": "U",
        "meta_norad_cat_id": 30387,
        "meta_element_set_no": 999,
        "meta_rev_at_epoch": 97505,
        "meta_bstar": 0.00024648,
        "meta_mean_motion_dot": 4.35e-06,
        "meta_mean_motion_ddot": 0,
        "tle_line1": "1 30387U 99025ADA 25359.52867897  .00000435  00000+0  24648-3 0  9990",
        "tle_line2": "2 30387  98.6560  14.2169 0001151  90.6992  61.3287 14.15065168975053"
      },
      "geometry": {
        "type": "Point",
        "coordinates": [
          27.12288053412991,
          -53.269156343360564
        ]
      }
    },
    {
      "type": "Feature",
      "properties": {
        "norad_id": 30388,
        "name": "FENGYUN 1C DEB",
        "group": "fengyun-1c-debris",
        "lat": 77.32016200529513,
        "lon": -116.77197953713701,
        "alt_km": 778.8664939468063,
        "timestamp": "2025-12-26T16:33:55.847683+00:00",
        "meta_object_name": "FENGYUN 1C DEB",
        "meta_object_id": "1999-025ADB",
        "meta_epoch": "2025-12-26T07:45:30.959136",
        "meta_mean_motion": 14.19802038,
        "meta_eccentricity": 0.02215154,
        "meta_inclination": 98.5984,
        "meta_ra_of_asc_node": 20.6117,
        "meta_arg_of_pericenter": 23.6242,
        "meta_mean_anomaly": 358.6962,
        "meta_ephemeris_type": 0,
        "meta_classification_type": "U",
        "meta_norad_cat_id": 30388,
        "meta_element_set_no": 999,
        "meta_rev_at_epoch": 97625,
        "meta_bstar": 0.00048378993,
        "meta_mean_motion_dot": 1.265e-05,
        "meta_mean_motion_ddot": 0,
        "tle_line1": "1 30388U 99025ADB 25360.32327499  .00001265  00000+0  48379-3 0  9999",
        "tle_line2": "2 30388  98.5984  20.6117 0221515  23.6242 358.6962 14.19802038976253"
      },
      "geometry": {
        "type": "Point",
        "coordinates": [
          -116.77197953713701,
          77.32016200529513
        ]
      }
    }
  ]
}